OBJECT_NAME,OBJECT_ID,EPOCH,MEAN_MOTION,ECCENTRICITY,INCLINATION,RA_OF_ASC_NODE,ARG_OF_PERICENTER,MEAN_ANOMALY,EPHEMERIS_TYPE,CLASSIFICATION_TYPE,NORAD_CAT_ID,ELEMENT_SET_NO,REV_AT_EPOCH,BSTAR,MEAN_MOTION_DOT,MEAN_MOTION_DDOT
GSAT-15,2015-065A,2026-06-15T01:16:38.720352,1.00270945,.0004063,0.0757,265.6446,161.5991,308.7505,0,U,41028,999,3877,0,-.253E-5,0
BADR-7 (ARABSAT-6B),2015-065B,2026-06-14T11:31:00.200352,1.00272772,.00036691,0.0283,227.4957,333.0805,260.9471,0,U,41029,999,3874,0,.152E-5,0
LAOSAT 1,2015-067A,2026-06-14T22:16:18.572736,1.00270439,.0002172,0.0055,72.2837,322.1798,331.3524,0,U,41034,999,3883,0,-.338E-5,0
TELSTAR 12V,2015-068A,2026-06-15T04:26:06.279360,1.00271032,.0002104,0.0008,359.5549,76.9095,238.5423,0,U,41036,999,3860,0,-.115E-5,0
ELEKTRO-L 2,2015-074A,2026-06-14T23:18:10.798848,1.00270489,.0000874,6.6873,70.5494,244.3322,283.4193,0,U,41105,999,3848,0,-.118E-5,0
COSMOS 2513,2015-075A,2026-06-13T10:06:46.767168,1.00271348,.0003255,0.0796,100.5492,331.7026,61.4361,0,U,41121,999,3851,0,-.126E-5,0
EXPRESS-AMU1,2015-082A,2026-06-15T00:35:38.686848,1.00272805,.0002625,0.0191,56.1446,28.9557,223.2202,0,U,41191,999,3824,0,.16E-5,0
GAOFEN-4,2015-083A,2026-06-15T01:00:38.786112,1.00269770,.0004375,0.3508,83.8441,115.0452,185.3102,0,U,41194,999,3850,0,-.33E-5,0
BELINTERSAT-1,2016-001A,2026-06-15T00:20:54.024288,1.00268886,.0002357,0.0428,254.8226,152.5869,272.5795,0,U,41238,999,3821,0,.112E-5,0
IRNSS-1E,2016-003A,2026-06-12T15:26:18.985920,1.00267194,.00179637,33.2248,59.8162,179.0965,5.2620,0,U,41241,999,3803,0,-.313E-5,0
EUTELSAT 9B,2016-005A,2026-06-15T04:32:50.633088,1.00270710,.000166,0.0761,74.9558,328.3690,297.3338,0,U,41310,999,3809,0,.65E-6,0
SES-9,2016-013A,2026-06-15T00:52:38.625888,1.00270006,.0002026,0.0110,337.8012,102.6599,304.3241,0,U,41380,999,3741,0,-.34E-5,0
EUTELSAT 65 WEST A,2016-014A,2026-06-15T03:34:38.725248,1.00269550,.0001987,0.0572,25.4759,48.4871,177.9402,0,U,41382,999,3750,0,-.272E-5,0
IRNSS-1F,2016-015A,2026-06-14T23:31:35.333184,1.00266256,.0017457,5.3436,96.8300,185.3474,6.4921,0,U,41384,999,3764,0,.159E-5,0
BEIDOU-2 IGSO-6,2016-021A,2026-06-14T15:02:21.911136,1.00259627,.0057107,60.2220,38.0652,231.4956,311.9910,0,U,41434,999,3745,0,-.152E-5,0
IRNSS-1G,2016-027A,2026-06-14T18:51:20.623968,1.00267255,.00075407,5.1921,97.5283,354.5075,223.4057,0,U,41469,999,3715,0,-.332E-5,0
JCSAT-2B,2016-028A,2026-06-15T03:31:37.271424,1.00269736,.0000704,0.0173,356.4928,88.8079,25.0382,0,U,41471,999,3711,0,-.161E-5,0
THAICOM 8,2016-031A,2026-06-14T23:44:41.575776,1.00269498,.0003412,0.0804,53.9607,5.2621,278.7356,0,U,41552,999,3669,0,-.116E-5,0
INTELSAT 31 (IS-31),2016-035A,2026-06-15T05:28:31.283040,1.00270923,.0001158,0.0175,272.6392,337.5898,0.3710,0,U,41581,999,3666,0,-.147E-5,0
BEIDOU-2 G7,2016-037A,2026-06-15T00:52:14.627424,1.00264685,.0006749,1.7136,69.2948,4.0409,313.4780,0,U,41586,999,686,0,-.349E-5,0
ABS-2A (MONGOLSAT-1),2016-038A,2026-06-15T04:42:21.731040,1.00267238,.0001268,0.0271,351.1680,26.2902,31.3640,0,U,41588,999,3668,0,0,0
EUTELSAT 117 WEST B,2016-038B,2026-06-15T00:23:38.718240,1.00269365,.0000447,0.0044,166.0114,257.2085,88.9985,0,U,41589,999,3664,0,-.6E-7,0
BRISAT,2016-039A,2026-06-14T23:41:38.858784,1.00269825,.0001831,0.0171,319.7299,121.8720,327.5863,0,U,41591,999,3658,0,-.192E-5,0
ECHOSTAR 18,2016-039B,2026-06-15T03:34:38.725248,1.00270364,.0001169,0.0176,2.7738,82.0696,170.8878,0,U,41592,999,3660,0,-.278E-5,0
MUOS-5,2016-041A,2026-06-15T04:06:38.774304,1.00271634,.0197381,2.2078,301.6240,260.8630,17.4014,0,U,41622,999,3706,0,-.122E-5,0
TIANTONG-1 1,2016-048A,2026-06-15T02:44:21.590592,1.00267374,.0005809,3.8455,43.4020,45.9095,316.5516,0,U,41725,999,3625,0,-.315E-5,0
JCSAT-16,2016-050A,2026-06-15T03:28:37.556832,1.00270111,.0000743,0.0172,359.9779,92.4304,7.1214,0,U,41729,999,3605,0,-.247E-5,0
USA 270,2016-052A,2026-06-11T08:15:58.536000,1.00285262,.0008524,4.1835,77.2658,338.7721,152.1702,0,U,41744,999,2807,0,.96E-6,0
USA 271,2016-052B,2026-06-11T06:58:56.063424,1.00260351,.0010788,4.1546,77.3359,156.7037,252.9173,0,U,41745,999,2786,0,-.344E-5,0
INTELSAT 36 (IS-36),2016-053A,2026-06-14T20:16:32.323584,1.00271558,.00020119,0.0108,2.9558,327.1608,305.6539,0,U,41747,999,3593,0,-.19E-6,0
INSAT-3DR,2016-054A,2026-06-14T20:18:09.668736,1.00270793,.00106365,0.1003,86.6948,187.2026,7.7579,0,U,41752,999,3579,0,-.71E-6,0
GSAT-18,2016-060A,2026-06-15T04:02:21.698016,1.00270756,.0005425,0.0566,101.1113,331.2403,325.6758,0,U,41793,999,3550,0,-.72E-6,0
