GSAT-15                 
1 41028U 15065A   26166.05322593 -.00000253  00000+0  00000+0 0  9991
2 41028   0.0757 265.6446 0004063 161.5991 308.7505  1.00270945 38775
BADR-7 (ARABSAT-6B)     
1 41029U 15065B   26165.47986343  .00000152  00000+0  00000+0 0  9993
2 41029   0.0283 227.4957 0003669 333.0805 260.9471  1.00272772 38742
LAOSAT 1                
1 41034U 15067A   26165.92799274 -.00000338  00000+0  00000+0 0  9993
2 41034   0.0055  72.2837 0002172 322.1798 331.3524  1.00270439 38836
TELSTAR 12V             
1 41036U 15068A   26166.18479490 -.00000115  00000+0  00000+0 0  9993
2 41036   0.0008 359.5549 0002104  76.9095 238.5423  1.00271032 38607
ELEKTRO-L 2             
1 41105U 15074A   26165.97095832 -.00000118  00000+0  00000+0 0  9990
2 41105   6.6873  70.5494 0000874 244.3322 283.4193  1.00270489 38485
COSMOS 2513             
1 41121U 15075A   26164.42137462 -.00000126  00000+0  00000+0 0  9993
2 41121   0.0796 100.5492 0003255 331.7026  61.4361  1.00271348 38515
EXPRESS-AMU1            
1 41191U 15082A   26166.02475332  .00000160  00000+0  00000+0 0  9994
2 41191   0.0191  56.1446 0002625  28.9557 223.2202  1.00272805 38241
GAOFEN-4                
1 41194U 15083A   26166.04211558 -.00000330  00000+0  00000+0 0  9998
2 41194   0.3508  83.8441 0004375 115.0452 185.3102  1.00269770 38500
BELINTERSAT-1           
1 41238U 16001A   26166.01451417  .00000112  00000+0  00000+0 0  9992
2 41238   0.0428 254.8226 0002357 152.5869 272.5795  1.00268886 38216
IRNSS-1E                
1 41241U 16003A   26163.64327530 -.00000313  00000+0  00000+0 0  9996
2 41241  33.2248  59.8162 0017963 179.0965   5.2620  1.00267194 38039
EUTELSAT 9B             
1 41310U 16005A   26166.18947492  .00000065  00000+0  00000+0 0  9995
2 41310   0.0761  74.9558 0001660 328.3690 297.3338  1.00270710 38090
SES-9                   
1 41380U 16013A   26166.03655817 -.00000340  00000+0  00000+0 0  9999
2 41380   0.0110 337.8012 0002026 102.6599 304.3241  1.00270006 37414
EUTELSAT 65 WEST A      
1 41382U 16014A   26166.14905932 -.00000272  00000+0  00000+0 0  9994
2 41382   0.0572  25.4759 0001987  48.4871 177.9402  1.00269550 37506
IRNSS-1F                
1 41384U 16015A   26165.98027006  .00000159  00000+0  00000+0 0  9998
2 41384   5.3436  96.8300 0017457 185.3474   6.4921  1.00266256 37645
BEIDOU-2 IGSO-6         
1 41434U 16021A   26165.62664249 -.00000152  00000+0  00000+0 0  9992
2 41434  60.2220  38.0652 0057107 231.4956 311.9910  1.00259627 37459
IRNSS-1G                
1 41469U 16027A   26165.78565537 -.00000332  00000+0  00000+0 0  9993
2 41469   5.1921  97.5283 0007540 354.5075 223.4057  1.00267255 37150
JCSAT-2B                
1 41471U 16028A   26166.14695916 -.00000161  00000+0  00000+0 0  9993
2 41471   0.0173 356.4928 0000704  88.8079  25.0382  1.00269736 37114
THAICOM 8               
1 41552U 16031A   26165.98937009 -.00000116  00000+0  00000+0 0  9990
2 41552   0.0804  53.9607 0003412   5.2621 278.7356  1.00269498 36698
INTELSAT 31 (IS-31)     
1 41581U 16035A   26166.22813985 -.00000147  00000+0  00000+0 0  9994
2 41581   0.0175 272.6392 0001158 337.5898   0.3710  1.00270923 36669
BEIDOU-2 G7             
1 41586U 16037A   26166.03628041 -.00000349  00000+0  00000+0 0  9991
2 41586   1.7136  69.2948 0006749   4.0409 313.4780  1.00264685  6863
ABS-2A (MONGOLSAT-1)    
1 41588U 16038A   26166.19608485  .00000000  00000+0  00000+0 0  9994
2 41588   0.0271 351.1680 0001268  26.2902  31.3640  1.00267238 36689
EUTELSAT 117 WEST B     
1 41589U 16038B   26166.01642035 -.00000006  00000+0  00000+0 0  9992
2 41589   0.0044 166.0114 0000447 257.2085  88.9985  1.00269365 36648
BRISAT                  
1 41591U 16039A   26165.98725531 -.00000192  00000+0  00000+0 0  9990
2 41591   0.0171 319.7299 0001831 121.8720 327.5863  1.00269825 36584
ECHOSTAR 18             
1 41592U 16039B   26166.14905932 -.00000278  00000+0  00000+0 0  9990
2 41592   0.0176   2.7738 0001169  82.0696 170.8878  1.00270364 36609
MUOS-5                  
1 41622U 16041A   26166.17128211 -.00000122  00000+0  00000+0 0  9995
2 41622   2.2078 301.6240 0197381 260.8630  17.4014  1.00271634 37063
TIANTONG-1 1            
1 41725U 16048A   26166.11413878 -.00000315  00000+0  00000+0 0  9990
2 41725   3.8455  43.4020 0005809  45.9095 316.5516  1.00267374 36256
JCSAT-16                
1 41729U 16050A   26166.14487913 -.00000247  00000+0  00000+0 0  9995
2 41729   0.0172 359.9779 0000743  92.4304   7.1214  1.00270111 36052
USA 270                 
1 41744U 16052A   26162.34442750  .00000096  00000+0  00000+0 0  9993
2 41744   4.1835  77.2658 0008524 338.7721 152.1702  1.00285262 28079
USA 271                 
1 41745U 16052B   26162.29092666 -.00000344  00000+0  00000+0 0  9992
2 41745   4.1546  77.3359 0010788 156.7037 252.9173  1.00260351 27860
INTELSAT 36 (IS-36)     
1 41747U 16053A   26165.84481856 -.00000019  00000+0  00000+0 0  9991
2 41747   0.0108   2.9558 0002011 327.1608 305.6539  1.00271558 35934
INSAT-3DR               
1 41752U 16054A   26165.84594524 -.00000071  00000+0  00000+0 0  9993
2 41752   0.1003  86.6948 0010636 187.2026   7.7579  1.00270793 35796
GSAT-18                 
1 41793U 16060A   26166.16830669 -.00000072  00000+0  00000+0 0  9995
2 41793   0.0566 101.1113 0005425 331.2403 325.6758  1.00270756 35500
